{
    "links": {
        "self": "http://www.neowsapp.com/rest/v1/neo/3759351?api_key=iIulBulltgU6a56xZRHN4H3l9WmuAYTsLGpBGhQ2"
    },
    "id": "3759351",
    "neo_reference_id": "3759351",
    "name": "(2016 RV33)",
    "designation": "2016 RV33",
    "nasa_jpl_url": "http://ssd.jpl.nasa.gov/sbdb.cgi?sstr=3759351",
    "absolute_magnitude_h": 26.6,
    "estimated_diameter": {
        "kilometers": {
            "estimated_diameter_min": 0.0127219879,
            "estimated_diameter_max": 0.0284472297
        },
        "meters": {
            "estimated_diameter_min": 12.7219878539,
            "estimated_diameter_max": 28.4472296503
        },
        "miles": {
            "estimated_diameter_min": 0.0079050743,
            "estimated_diameter_max": 0.0176762835
        },
        "feet": {
            "estimated_diameter_min": 41.7388066307,
            "estimated_diameter_max": 93.330808926
        }
    },
    "is_potentially_hazardous_asteroid": false,
    "close_approach_data": [
        {
            "close_approach_date": "2016-09-05",
            "close_approach_date_full": "2016-Sep-05 00:16",
            "epoch_date_close_approach": 1473034560000,
            "relative_velocity": {
                "kilometers_per_second": "8.5345856018",
                "kilometers_per_hour": "30724.5081666595",
                "miles_per_hour": "19091.0145327779"
            },
            "miss_distance": {
                "astronomical": "0.0221069044",
                "lunar": "8.5995858116",
                "kilometers": "3307145.810533628",
                "miles": "2054965.1166669464"
            },
            "orbiting_body": "Earth"
        }
    ],
    "orbital_data": {
        "orbit_id": "3",
        "orbit_determination_date": "2017-04-06 08:23:56",
        "first_observation_date": "2016-09-10",
        "last_observation_date": "2016-09-24",
        "data_arc_in_days": 14,
        "observations_used": 29,
        "orbit_uncertainty": "8",
        "minimum_orbit_intersection": ".0173996",
        "jupiter_tisserand_invariant": "3.734",
        "epoch_osculation": "2457643.5",
        "eccentricity": ".4813227681035565",
        "semi_major_axis": "1.948590296536763",
        "inclination": "7.577283511583806",
        "ascending_node_longitude": "344.107884709695",
        "orbital_period": "993.5259848142554",
        "perihelion_distance": "1.010689421107958",
        "perihelion_argument": "339.9411367216804",
        "aphelion_distance": "2.886491171965567",
        "perihelion_time": "2457621.118675796490",
        "mean_anomaly": "8.109779549218281",
        "mean_motion": ".3623458324215886",
        "equinox": "J2000",
        "orbit_class": {
            "orbit_class_type": "APO",
            "orbit_class_description": "Near-Earth asteroid orbits which cross the Earth’s orbit similar to that of 1862 Apollo",
            "orbit_class_range": "a (semi-major axis) > 1.0 AU; q (perihelion) < 1.017 AU"
        }
    },
    "is_sentry_object": false
}